[
  {
    "OBJECT_NAME": "SCD 1",
    "OBJECT_ID": "1993-009B",
    "EPOCH": "2025-06-14T10:34:52.293792",
    "MEAN_MOTION": 14.45862208,
    "ECCENTRICITY": 0.0041982,
    "INCLINATION": 24.9708,
    "RA_OF_ASC_NODE": 317.7344,
    "ARG_OF_PERICENTER": 206.2763,
    "MEAN_ANOMALY": 188.1635,
    "EPHEMERIS_TYPE": 0,
    "CLASSIFICATION_TYPE": "U",
    "NORAD_CAT_ID": 22490,
    "ELEMENT_SET_NO": 999,
    "REV_AT_EPOCH": 70783,
    "BSTAR": 7.1952e-05,
    "MEAN_MOTION_DOT": 4.49e-06,
    "MEAN_MOTION_DDOT": 0
  },
  {
    "OBJECT_NAME": "TECHSAT 1B (GO-32)",
    "OBJECT_ID": "1998-043D",
    "EPOCH": "2025-06-14T12:56:11.052384",
    "MEAN_MOTION": 14.24316361,
    "ECCENTRICITY": 0.0001438,
    "INCLINATION": 98.9703,
    "RA_OF_ASC_NODE": 144.7614,
    "ARG_OF_PERICENTER": 148.2462,
    "MEAN_ANOMALY": 211.8803,
    "EPHEMERIS_TYPE": 0,
    "CLASSIFICATION_TYPE": "U",
    "NORAD_CAT_ID": 25397,
    "ELEMENT_SET_NO": 999,
    "REV_AT_EPOCH": 39899,
    "BSTAR": 4.4535e-05,
    "MEAN_MOTION_DOT": 5.6e-07,
    "MEAN_MOTION_DDOT": 0
  },
  {
    "OBJECT_NAME": "SCD 2",
    "OBJECT_ID": "1998-060A",
    "EPOCH": "2025-06-14T10:56:31.563168",
    "MEAN_MOTION": 14.45300453,
    "ECCENTRICITY": 0.0016729,
    "INCLINATION": 24.9934,
    "RA_OF_ASC_NODE": 179.5602,
    "ARG_OF_PERICENTER": 196.8692,
    "MEAN_ANOMALY": 320.5787,
    "EPHEMERIS_TYPE": 0,
    "CLASSIFICATION_TYPE": "U",
    "NORAD_CAT_ID": 25504,
    "ELEMENT_SET_NO": 999,
    "REV_AT_EPOCH": 40706,
    "BSTAR": 5.1244e-05,
    "MEAN_MOTION_DOT": 3.65e-06,
    "MEAN_MOTION_DDOT": 0
  },
  {
    "OBJECT_NAME": "DLR-TUBSAT",
    "OBJECT_ID": "1999-029B",
    "EPOCH": "2025-06-14T16:13:20.487648",
    "MEAN_MOTION": 14.52273571,
    "ECCENTRICITY": 0.0014843,
    "INCLINATION": 98.6352,
    "RA_OF_ASC_NODE": 144.8002,
    "ARG_OF_PERICENTER": 32.0836,
    "MEAN_ANOMALY": 328.1259,
    "EPHEMERIS_TYPE": 0,
    "CLASSIFICATION_TYPE": "U",
    "NORAD_CAT_ID": 25757,
    "ELEMENT_SET_NO": 999,
    "REV_AT_EPOCH": 38000,
    "BSTAR": 3.8511e-05,
    "MEAN_MOTION_DOT": 1.08e-06,
    "MEAN_MOTION_DDOT": 0
  },
  {
    "OBJECT_NAME": "TERRA",
    "OBJECT_ID": "1999-068A",
    "EPOCH": "2025-06-14T20:20:28.236192",
    "MEAN_MOTION": 14.60709799,
    "ECCENTRICITY": 0.0001379,
    "INCLINATION": 97.998,
    "RA_OF_ASC_NODE": 223.8899,
    "ARG_OF_PERICENTER": 347.0775,
    "MEAN_ANOMALY": 134.6509,
    "EPHEMERIS_TYPE": 0,
    "CLASSIFICATION_TYPE": "U",
    "NORAD_CAT_ID": 25994,
    "ELEMENT_SET_NO": 999,
    "REV_AT_EPOCH": 35609,
    "BSTAR": 9.8913e-05,
    "MEAN_MOTION_DOT": 4.37e-06,
    "MEAN_MOTION_DDOT": 0
  },
  {
    "OBJECT_NAME": "MAROC-TUBSAT",
    "OBJECT_ID": "2001-056D",
    "EPOCH": "2025-06-14T17:14:12.466176",
    "MEAN_MOTION": 13.70242804,
    "ECCENTRICITY": 0.0019893,
    "INCLINATION": 99.7783,
    "RA_OF_ASC_NODE": 331.1216,
    "ARG_OF_PERICENTER": 6.6684,
    "MEAN_ANOMALY": 16.9936,
    "EPHEMERIS_TYPE": 0,
    "CLASSIFICATION_TYPE": "U",
    "NORAD_CAT_ID": 27004,
    "ELEMENT_SET_NO": 999,
    "REV_AT_EPOCH": 17585,
    "BSTAR": 1.7724e-05,
    "MEAN_MOTION_DOT": -3.1e-07,
    "MEAN_MOTION_DDOT": 0
  },
  {
    "OBJECT_NAME": "AQUA",
    "OBJECT_ID": "2002-022A",
    "EPOCH": "2025-06-14T20:56:01.797792",
    "MEAN_MOTION": 14.61303008,
    "ECCENTRICITY": 0.0002031,
    "INCLINATION": 98.3778,
    "RA_OF_ASC_NODE": 124.1935,
    "ARG_OF_PERICENTER": 70.5887,
    "MEAN_ANOMALY": 314.3678,
    "EPHEMERIS_TYPE": 0,
    "CLASSIFICATION_TYPE": "U",
    "NORAD_CAT_ID": 27424,
    "ELEMENT_SET_NO": 999,
    "REV_AT_EPOCH": 22965,
    "BSTAR": 0.00018189,
    "MEAN_MOTION_DOT": 8.49e-06,
    "MEAN_MOTION_DDOT": 0
  },
  {
    "OBJECT_NAME": "IRS-P6 (RESOURCESAT-1)",
    "OBJECT_ID": "2003-046A",
    "EPOCH": "2025-06-14T20:12:22.720896",
    "MEAN_MOTION": 14.35981904,
    "ECCENTRICITY": 0.0064306,
    "INCLINATION": 98.2405,
    "RA_OF_ASC_NODE": 214.3415,
    "ARG_OF_PERICENTER": 5.134,
    "MEAN_ANOMALY": 104.5793,
    "EPHEMERIS_TYPE": 0,
    "CLASSIFICATION_TYPE": "U",
    "NORAD_CAT_ID": 28051,
    "ELEMENT_SET_NO": 999,
    "REV_AT_EPOCH": 12783,
    "BSTAR": 6.5699e-05,
    "MEAN_MOTION_DOT": 1.54e-06,
    "MEAN_MOTION_DDOT": 0
  },
  {
    "OBJECT_NAME": "SHIYAN-1 (SY-1)",
    "OBJECT_ID": "2004-012A",
    "EPOCH": "2025-06-14T15:47:05.175456",
    "MEAN_MOTION": 15.2322672,
    "ECCENTRICITY": 0.0006364,
    "INCLINATION": 97.9159,
    "RA_OF_ASC_NODE": 217.0353,
    "ARG_OF_PERICENTER": 215.4715,
    "MEAN_ANOMALY": 144.6098,
    "EPHEMERIS_TYPE": 0,
    "CLASSIFICATION_TYPE": "U",
    "NORAD_CAT_ID": 28220,
    "ELEMENT_SET_NO": 999,
    "REV_AT_EPOCH": 15514,
    "BSTAR": 0.00037799,
    "MEAN_MOTION_DOT": 8.878e-05,
    "MEAN_MOTION_DDOT": 0
  },
  {
    "OBJECT_NAME": "AURA",
    "OBJECT_ID": "2004-026A",
    "EPOCH": "2025-06-14T14:22:12.068256",
    "MEAN_MOTION": 14.60443148,
    "ECCENTRICITY": 0.0001675,
    "INCLINATION": 98.2943,
    "RA_OF_ASC_NODE": 115.364,
    "ARG_OF_PERICENTER": 73.1176,
    "MEAN_ANOMALY": 287.0208,
    "EPHEMERIS_TYPE": 0,
    "CLASSIFICATION_TYPE": "U",
    "NORAD_CAT_ID": 28376,
    "ELEMENT_SET_NO": 999,
    "REV_AT_EPOCH": 11254,
    "BSTAR": 0.00018012,
    "MEAN_MOTION_DOT": 8.25e-06,
    "MEAN_MOTION_DDOT": 0
  },
  {
    "OBJECT_NAME": "IRS-P5 (CARTOSAT-1)",
    "OBJECT_ID": "2005-017A",
    "EPOCH": "2025-06-14T13:27:46.189728",
    "MEAN_MOTION": 14.89673892,
    "ECCENTRICITY": 0.0001589,
    "INCLINATION": 97.5665,
    "RA_OF_ASC_NODE": 199.8526,
    "ARG_OF_PERICENTER": 130.2688,
    "MEAN_ANOMALY": 229.8669,
    "EPHEMERIS_TYPE": 0,
    "CLASSIFICATION_TYPE": "U",
    "NORAD_CAT_ID": 28649,
    "ELEMENT_SET_NO": 999,
    "REV_AT_EPOCH": 8906,
    "BSTAR": 0.00015228,
    "MEAN_MOTION_DOT": 1.404e-05,
    "MEAN_MOTION_DDOT": 0
  },
  {
    "OBJECT_NAME": "SINAH 1",
    "OBJECT_ID": "2005-043D",
    "EPOCH": "2025-06-14T12:59:39.648768",
    "MEAN_MOTION": 14.63723022,
    "ECCENTRICITY": 0.0014272,
    "INCLINATION": 98.2381,
    "RA_OF_ASC_NODE": 293.9175,
    "ARG_OF_PERICENTER": 353.3895,
    "MEAN_ANOMALY": 6.7117,
    "EPHEMERIS_TYPE": 0,
    "CLASSIFICATION_TYPE": "U",
    "NORAD_CAT_ID": 28893,
    "ELEMENT_SET_NO": 999,
    "REV_AT_EPOCH": 4697,
    "BSTAR": 7.6102e-05,
    "MEAN_MOTION_DOT": 3.48e-06,
    "MEAN_MOTION_DDOT": 0
  },
  {
    "OBJECT_NAME": "EROS B",
    "OBJECT_ID": "2006-014A",
    "EPOCH": "2025-06-14T17:36:05.540544",
    "MEAN_MOTION": 15.39937067,
    "ECCENTRICITY": 0.0004519,
    "INCLINATION": 97.3468,
    "RA_OF_ASC_NODE": 278.8892,
    "ARG_OF_PERICENTER": 52.2872,
    "MEAN_ANOMALY": 307.8783,
    "EPHEMERIS_TYPE": 0,
    "CLASSIFICATION_TYPE": "U",
    "NORAD_CAT_ID": 29079,
    "ELEMENT_SET_NO": 999,
    "REV_AT_EPOCH": 6278,
    "BSTAR": 0.00078561,
    "MEAN_MOTION_DOT": 0.00031293,
    "MEAN_MOTION_DDOT": 0
  },
  {
    "OBJECT_NAME": "RESURS-DK 1",
    "OBJECT_ID": "2006-021A",
    "EPOCH": "2025-06-14T13:33:33.748416",
    "MEAN_MOTION": 15.10983346,
    "ECCENTRICITY": 0.0005092,
    "INCLINATION": 69.9315,
    "RA_OF_ASC_NODE": 209.5519,
    "ARG_OF_PERICENTER": 206.171,
    "MEAN_ANOMALY": 153.9199,
    "EPHEMERIS_TYPE": 0,
    "CLASSIFICATION_TYPE": "U",
    "NORAD_CAT_ID": 29228,
    "ELEMENT_SET_NO": 999,
    "REV_AT_EPOCH": 4700,
    "BSTAR": 0.00010211,
    "MEAN_MOTION_DOT": 1.603e-05,
    "MEAN_MOTION_DDOT": 0
  }
]