SCD 1                   
1 22490U 93009B   25165.44088303  .00000449  00000+0  71952-4 0  9991
2 22490  24.9708 317.7344 0041982 206.2763 188.1635 14.45862208707835
TECHSAT 1B (GO-32)      
1 25397U 98043D   25165.53901681  .00000056  00000+0  44535-4 0  9997
2 25397  98.9703 144.7614 0001438 148.2462 211.8803 14.24316361398996
SCD 2                   
1 25504U 98060A   25165.45592087  .00000365  00000+0  51244-4 0  9991
2 25504  24.9934 179.5602 0016729 196.8692 320.5787 14.45300453407063
DLR-TUBSAT              
1 25757U 99029B   25165.67593157  .00000108  00000+0  38511-4 0  9997
2 25757  98.6352 144.8002 0014843  32.0836 328.1259 14.52273571380000
TERRA                   
1 25994U 99068A   25165.84754903  .00000437  00000+0  98913-4 0  9997
2 25994  97.9980 223.8899 0001379 347.0775 134.6509 14.60709799356090
MAROC-TUBSAT            
1 27004U 01056D   25165.71819984 -.00000031  00000+0  17724-4 0  9990
2 27004  99.7783 331.1216 0019893   6.6684  16.9936 13.70242804175856
AQUA                    
1 27424U 02022A   25165.87224303  .00000849  00000+0  18189-3 0  9993
2 27424  98.3778 124.1935 0002031  70.5887 314.3678 14.61303008229651
IRS-P6 (RESOURCESAT-1)  
1 28051U 03046A   25165.84192964  .00000154  00000+0  65699-4 0  9999
2 28051  98.2405 214.3415 0064306   5.1340 104.5793 14.35981904127832
SHIYAN-1 (SY-1)         
1 28220U 04012A   25165.65769879  .00008878  00000+0  37799-3 0  9995
2 28220  97.9159 217.0353 0006364 215.4715 144.6098 15.23226720155149
AURA                    
1 28376U 04026A   25165.59875079  .00000825  00000+0  18012-3 0  9996
2 28376  98.2943 115.3640 0001675  73.1176 287.0208 14.60443148112542
IRS-P5 (CARTOSAT-1)     
1 28649U 05017A   25165.56095127  .00001404  00000+0  15228-3 0  9995
2 28649  97.5665 199.8526 0001589 130.2688 229.8669 14.89673892 89062
SINAH 1                 
1 28893U 05043D   25165.54143112  .00000348  00000+0  76102-4 0  9996
2 28893  98.2381 293.9175 0014272 353.3895   6.7117 14.63723022 46979
EROS B                  
1 29079U 06014A   25165.73339746  .00031293  00000+0  78561-3 0  9996
2 29079  97.3468 278.8892 0004519  52.2872 307.8783 15.39937067 62784
RESURS-DK 1             
1 29228U 06021A   25165.56497394  .00001603  00000+0  10211-3 0  9995
2 29228  69.9315 209.5519 0005092 206.1710 153.9199 15.10983346 47000
